#aV2007  2 25  0  0   .00000000      96 DD+AD WGS84 FIT  NGA
## 1416       .00000000   900.00000000 54156  .0000000000000
+   30     1  2  3  4  5  6  7  8  9 10 11 12 13 14 16 17 18
+         19 20 21 22 23 24 25 26 27 28 29 30 31  0  0  0  0
+          0  0  0  0  0  0  0  0  0  0  0  0  0  0  0  0  0
+          0  0  0  0  0  0  0  0  0  0  0  0  0  0  0  0  0
+          0  0  0  0  0  0  0  0  0  0  0  0  0  0  0  0  0
++         0  0  0  0  0  0  0  0  0  0  0  0  0  0  0  0  0
++         0  0  0  0  0  0  0  0  0  0  0  0  0  0  0  0  0
++         0  0  0  0  0  0  0  0  0  0  0  0  0  0  0  0  0
++         0  0  0  0  0  0  0  0  0  0  0  0  0  0  0  0  0
++         0  0  0  0  0  0  0  0  0  0  0  0  0  0  0  0  0
%c cc cc ccc ccc cccc cccc cccc cccc ccccc ccccc ccccc ccccc
%c cc cc ccc ccc cccc cccc cccc cccc ccccc ccccc ccccc ccccc
%f  0.0000000  0.000000000  0.00000000000  0.000000000000000
%f  0.0000000  0.000000000  0.00000000000  0.000000000000000
%i    0    0    0    0      0      0      0      0         0
%i    0    0    0    0      0      0      0      0         0
/*      NGA, ST. LOUIS,MO.                                  
/*   EPHEMERIS COMPUTED FROM  3 DAYS OF DATA                
/* CCCCCCCCCCCCCCCCCCCCCCCCCCCCCCCCCCCCCCCCCCCCCCCCCCCCCCCCC
/* CCCCCCCCCCCCCCCCCCCCCCCCCCCCCCCCCCCCCCCCCCCCCCCCCCCCCCCCC
*  2007  2 25 17  0   .00000000                                                 
P  1 -10528.185103  19478.248431  14834.342784    110.047406                    
V  1 -15815.514491   9582.391007 -24201.484930       .024223                    
P  2  -1368.088829 -16485.874932  20597.349916     85.480394                    
V  2  25106.678642   9062.301409   8564.003589       .032999                    
P  3  -4841.952124  20901.794171 -15650.065288     19.298465                    
V  3 -16211.372519  11616.759033  21130.622962       .058541                    
P  4  14264.699140  -9793.530522  20177.055915      5.587249                    
V  4  23350.741446  10832.040147 -10854.154082       .017214                    
P  5 -14308.239968 -17673.194724  13620.948674     40.080844                    
V  5  -1401.883474 -17812.064013 -24024.917699       .038340                    
P  6 -20228.130456    219.238128  17422.594686     52.265786                    
V  6  15335.501612 -15672.761407  18147.146854       .247043                    
P  7 -21606.520233   4158.509753  15274.843039    403.813200                    
V  7  12465.731109 -14327.727773  21944.853389      -.128460                    
P  8  21741.998884  -1683.841398 -15577.966077    -97.974517                    
V  8  17076.777381   9219.070463  22587.765024      -.013717                    
P  9 -18441.357077 -15471.871240 -12062.569191     59.150807                    
V  9  14146.040934   2987.840125 -26535.200268       .017270                    
P 10  -1293.477203 -26206.448743   2637.134730     97.983097                    
V 10   3176.389876   3155.851860  31949.778292       .005640                    
P 11  20996.145300  13040.928300 -10194.651904      8.379935                    
V 11 -13419.783060   1129.959316 -26172.486265       .012627                    
P 12 -12222.968055 -19582.499326  13285.705335    -48.009106                    
V 12   -268.913483 -16811.047513 -25187.190666       .026402                    
P 13  21244.688558  -3071.291297  15517.090081    147.314446                    
V 13 -15206.326516  12792.763530  23257.129438       .039594                    
P 14 -21028.065466  16165.695261    303.638969      9.535645                    
V 14  -1435.288359  -1427.410422 -32388.297216       .014191                    
P 16  -3075.757881  24762.469988   8982.910606    125.672727                    
V 16  -4019.543338 -10900.086008  29071.766165       .035613                    
P 17  21212.471554 -15854.814714   -727.459738     77.470066                    
V 17   1080.993203   2902.392929 -31797.970728      -.014924                    
P 18 -15349.593436    -64.791070 -21555.564674   -253.489710                    
V 18  -2740.113600 -27557.970455   1704.218713       .002670                    
P 19   3122.122942  15792.661011 -21013.211045      8.708047                    
V 19 -22623.586172  14634.566812   7700.110428       .040658                    
P 20  13090.436430  18064.942247  14347.255989    -22.546122                    
V 20    568.073976  18518.444219 -23627.998288      -.002071                    
P 21 -24911.012893  -3613.677169  -9213.788741     72.165885                    
V 21  -9611.911970  -7207.486959  27945.196198       .009050                    
P 22 -12356.203576  13552.449558 -19050.493257    169.294047                    
V 22  -3766.661112 -24308.070191 -14748.359647       .018014                    
P 23  14881.250092   6560.075128  20957.511172    151.647382                    
V 23 -20612.007734  17021.393332   9085.253319       .017843                    
P 24 -22079.833011 -13805.960165   4633.149925     80.418357                    
V 24   6469.492194   -423.776694  31110.629433       .032812                    
P 25   4223.399446  16482.867239  20773.794719    328.690193                    
V 25 -24731.739304  -6306.584959  10384.689237      -.189468                    
P 26  -1756.866129 -16041.850095 -21386.158364    -60.831190                    
V 26  21601.213418 -14920.670459  10167.093196      -.187851                    
P 27  25512.075624   3927.153426  -6165.458285     96.134583                    
V 27   7365.572553   5138.351759  30320.931865       .020748                    
P 28  13423.854792  -9065.007655 -20658.257349      6.590434                    
V 28   4244.308511  26733.514130  -9180.085920      -.007086                    
P 29   2904.698608 -18108.801116 -18850.450227    357.518981                    
V 29  19969.750029 -14186.799709  16855.228732       .079240                    
P 30 -15724.287086  -8587.537297  19338.840004     26.420052                    
V 30  -3102.237292 -25075.741096 -13335.985957       .011286                    
P 31 -11512.798259  11412.042169  21251.616458     11.403952                    
V 31 -24413.150180 -10342.223473  -7686.828908       .031563                    
EOF
